{"fetched_at":"2026-07-11T06:35:41.201Z","source":"https://celestrak.org/NORAD/elements/gp.php?NAME=PLEIADES&FORMAT=JSON","constellation":"pleiades","records":[{"OBJECT_NAME":"PLEIADES 1A","OBJECT_ID":"2011-076F","EPOCH":"2026-07-10T21:01:28.058016","CLASSIFICATION_TYPE":"U","MEAN_MOTION":14.58544975,"ECCENTRICITY":0.0001736,"INCLINATION":98.197,"RA_OF_ASC_NODE":266.6598,"ARG_OF_PERICENTER":81.5142,"MEAN_ANOMALY":53.7894,"EPHEMERIS_TYPE":0,"NORAD_CAT_ID":38012,"ELEMENT_SET_NO":999,"REV_AT_EPOCH":77544,"BSTAR":0.000011078,"MEAN_MOTION_DOT":6e-8,"MEAN_MOTION_DDOT":0},{"OBJECT_NAME":"PLEIADES 1B","OBJECT_ID":"2012-068A","EPOCH":"2026-07-10T19:34:26.943168","CLASSIFICATION_TYPE":"U","MEAN_MOTION":14.58532697,"ECCENTRICITY":0.0001624,"INCLINATION":98.1939,"RA_OF_ASC_NODE":266.5412,"ARG_OF_PERICENTER":79.5837,"MEAN_ANOMALY":280.5546,"EPHEMERIS_TYPE":0,"NORAD_CAT_ID":39019,"ELEMENT_SET_NO":999,"REV_AT_EPOCH":72429,"BSTAR":0.000024111,"MEAN_MOTION_DOT":6.6e-7,"MEAN_MOTION_DDOT":0}]}
