PLEIADES 1A             
1 38012U 11076F   26191.87601919  .00000006  00000+0  11078-4 0  9995
2 38012  98.1970 266.6598 0001736  81.5142  53.7894 14.58544975775445
PLEIADES 1B             
1 39019U 12068A   26191.81558962  .00000066  00000+0  24111-4 0  9996
2 39019  98.1939 266.5412 0001624  79.5837 280.5546 14.58532697724295
